H1 CPF 01  gfz 2021 12 25 13  8592 terrasarx 
H2 0702601  6201 31698    2021 12 25 12 59 42 2021 12 30 00 00 42   120 1 1  0 0 0
H9
10 0 59576  69102.000000  0   -6544931.196   2121884.558   -363526.836
10 0 59576  69222.000000  0   -6387343.229   2257228.650  -1261696.123
10 0 59576  69342.000000  0   -6116237.989   2349410.136  -2137680.406
10 0 59576  69462.000000  0   -5737224.978   2394915.589  -2976105.889
10 0 59576  69582.000000  0   -5257853.910   2391169.172  -3762291.432
10 0 59576  69702.000000  0   -4687453.319   2336605.775  -4482507.027
10 0 59576  69822.000000  0   -4036937.780   2230722.563  -5124210.828
10 0 59576  69942.000000  0   -3318588.862   2074108.334  -5676260.417
10 0 59576  70062.000000  0   -2545816.680   1868450.563  -6129096.471
10 0 59576  70182.000000  0   -1732905.314   1616519.998  -6474898.420
10 0 59576  70302.000000  0    -894746.734   1322133.038  -6707707.213
10 0 59576  70422.000000  0     -46571.256    990093.284  -6823516.977
10 0 59576  70542.000000  0     796322.757    626114.001  -6820335.796
10 0 59576  70662.000000  0    1618838.013    236721.969  -6698218.535
10 0 59576  70782.000000  0    2406343.634   -170857.155  -6459265.555
10 0 59576  70902.000000  0    3144929.657   -588828.940  -6107590.598
10 0 59576  71022.000000  0    3821650.168  -1008974.804  -5649256.833
10 0 59576  71142.000000  0    4424749.065  -1422808.472  -5092182.573
10 0 59576  71262.000000  0    4943868.595  -1821743.863  -4446016.726
10 0 59576  71382.000000  0    5370234.154  -2197270.249  -3721982.321
10 0 59576  71502.000000  0    5696812.139  -2541130.954  -2932690.780
10 0 59576  71622.000000  0    5918436.941  -2845502.216  -2091927.952
10 0 59576  71742.000000  0    6031902.581  -3103167.820  -1214415.298
10 0 59576  71862.000000  0    6036017.136  -3307685.154   -315551.153
10 0 59576  71982.000000  0    5931617.515  -3453538.772    588864.191
10 0 59576  72102.000000  0    5721544.078  -3536277.320   1482913.084
10 0 59576  72222.000000  0    5410574.222  -3552629.605   2350851.010
10 0 59576  72342.000000  0    5005314.806  -3500595.596   3177392.361
10 0 59576  72462.000000  0    4514059.854  -3379511.507   3947986.663
10 0 59576  72582.000000  0    3946616.640  -3190086.619   4649079.015
10 0 59576  72702.000000  0    3314103.627  -2934413.041   5268351.802
10 0 59576  72822.000000  0    2628724.565  -2615945.490   5794940.041
10 0 59576  72942.000000  0    1903527.070  -2239453.413   6219618.228
10 0 59576  73062.000000  0    1152149.339  -1810947.422   6534956.500
10 0 59576  73182.000000  0     388560.571  -1337580.909   6735444.572
10 0 59576  73302.000000  0    -373199.871   -827528.515   6817582.065
10 0 59576  73422.000000  0   -1119279.978   -289843.946   6779935.058
10 0 59576  73542.000000  0   -1836265.712    265700.419   6623159.386
10 0 59576  73662.000000  0   -2511421.201    828790.614   6349990.074
10 0 59576  73782.000000  0   -3132915.043   1388761.567   5965196.920
10 0 59576  73902.000000  0   -3690029.353   1934798.132   5475506.877
10 0 59576  74022.000000  0   -4173348.988   2456144.061   4889493.339
10 0 59576  74142.000000  0   -4574926.780   2942315.642   4217431.899
10 0 59576  74262.000000  0   -4888420.893   3383313.932   3471123.595
10 0 59576  74382.000000  0   -5109200.875   3769832.422   2663689.931
10 0 59576  74502.000000  0   -5234420.813   4093455.730   1809342.142
10 0 59576  74622.000000  0   -5263057.720   4346844.216    923127.275
10 0 59576  74742.000000  0   -5195911.874   4523898.645     20655.818
10 0 59576  74862.000000  0   -5035570.263   4619900.339   -882180.876
10 0 59576  74982.000000  0   -4786334.476   4631625.364  -1769499.964
10 0 59576  75102.000000  0   -4454112.562   4557427.713  -2625716.184
10 0 59576  75222.000000  0   -4046279.443   4397288.574  -3435822.437
10 0 59576  75342.000000  0   -3571509.458   4152832.471  -4185655.848
10 0 59576  75462.000000  0   -3039586.722   3827310.570  -4862143.589
10 0 59576  75582.000000  0   -2461199.294   3425552.531  -5453524.473
10 0 59576  75702.000000  0   -1847722.322   2953889.764  -5949545.542
10 0 59576  75822.000000  0   -1210992.355   2420049.687  -6341630.508
10 0 59576  75942.000000  0    -563079.160   1833024.098  -6623016.181
10 0 59576  76062.000000  0      83940.097   1202916.244  -6788857.769
10 0 59576  76182.000000  0     718200.578    540767.882  -6836303.349
10 0 59576  76302.000000  0    1328262.512   -141630.468  -6764538.963
10 0 59576  76422.000000  0    1903313.254   -831945.519  -6574799.934
10 0 59576  76542.000000  0    2433353.917  -1517518.204  -6270351.342
10 0 59576  76662.000000  0    2909370.785  -2185589.948  -5856437.979
10 0 59576  76782.000000  0    3323488.177  -2823535.075  -5340204.599
10 0 59576  76902.000000  0    3669102.305  -3419099.330  -4730584.310
10 0 59576  77022.000000  0    3940989.941  -3960636.005  -4038152.858
10 0 59576  77142.000000  0    4135391.165  -4437335.209  -3274955.546
10 0 59576  77262.000000  0    4250066.249  -4839444.249  -2454306.280
10 0 59576  77382.000000  0    4284323.728  -5158473.374  -1590559.644
10 0 59576  77502.000000  0    4239016.352  -5387381.028   -698859.510
10 0 59576  77622.000000  0    4116506.226  -5520732.442    205130.336
10 0 59576  77742.000000  0    3920598.597  -5554828.206   1105507.778
10 0 59576  77862.000000  0    3656446.569  -5487798.885   1986421.020
10 0 59576  77982.000000  0    3330427.319  -5319661.269   2832357.208
10 0 59576  78102.000000  0    2949994.048  -5052337.516   3628422.676
10 0 59576  78222.000000  0    2523508.409  -4689635.343   4360611.140
10 0 59576  78342.000000  0    2060057.492  -4237190.417   5016053.501
10 0 59576  78462.000000  0    1569259.419  -3702372.472   5583244.421
10 0 59576  78582.000000  0    1061062.454  -3094157.726   6052242.584
10 0 59576  78702.000000  0     545541.588  -2422970.636   6414839.578
10 0 59576  78822.000000  0      32698.345  -1700499.970   6664696.516
10 0 59576  78942.000000  0    -467732.303   -939492.612   6797448.536
10 0 59576  79062.000000  0    -946465.451   -153526.968   6810777.468
10 0 59576  79182.000000  0   -1394837.637    643229.797   6704449.557
10 0 59576  79302.000000  0   -1804963.111   1436276.558   6480319.026
10 0 59576  79422.000000  0   -2169872.611   2211041.113   6142297.797
10 0 59576  79542.000000  0   -2483632.643   2953147.697   5696291.535
10 0 59576  79662.000000  0   -2741443.132   3648685.029   5150102.469
10 0 59576  79782.000000  0   -2939713.178   4284470.549   4513299.917
10 0 59576  79902.000000  0   -3076112.237   4848306.111   3797057.869
10 0 59576  80022.000000  0   -3149595.316   5329219.601   3013962.077
10 0 59576  80142.000000  0   -3160401.284   5717686.136   2177788.767
10 0 59576  80262.000000  0   -3110024.768   6005823.230   1303259.751
10 0 59576  80382.000000  0   -3001161.558   6187556.180    405778.724
10 0 59576  80502.000000  0   -2837628.848   6258749.516   -498847.320
10 0 59576  80622.000000  0   -2624262.976   6217299.851  -1394696.009
10 0 59576  80742.000000  0   -2366795.608   6063186.506  -2266021.407
10 0 59576  80862.000000  0   -2071710.767   5798476.526  -3097538.658
10 0 59576  80982.000000  0   -1746089.748   5427290.299  -3874694.398
10 0 59576  81102.000000  0   -1397447.728   4955727.379  -4583922.096
10 0 59576  81222.000000  0   -1033565.791   4391754.471  -5212874.724
10 0 59576  81342.000000  0    -662322.298   3745061.173  -5750632.910
10 0 59576  81462.000000  0    -291526.393   3026884.603  -6187886.412
10 0 59576  81582.000000  0      71242.312   2249806.579  -6517084.379
10 0 59576  81702.000000  0     418783.782   1427530.527  -6732553.572
10 0 59576  81822.000000  0     744415.736    574640.897  -6830587.228
10 0 59576  81942.000000  0    1042098.489   -293651.958  -6809501.757
10 0 59576  82062.000000  0    1306543.614  -1161778.030  -6669661.728
10 0 59576  82182.000000  0    1533305.183  -2014079.462  -6413472.796
10 0 59576  82302.000000  0    1718853.436  -2835085.246  -6045345.441
10 0 59576  82422.000000  0    1860629.844  -3609787.253  -5571628.698
10 0 59576  82542.000000  0    1957081.925  -4323915.101  -5000511.528
10 0 59576  82662.000000  0    2007677.358  -4964200.442  -4341890.648
10 0 59576  82782.000000  0    2012897.383  -5518627.603  -3607210.224
10 0 59576  82902.000000  0    1974208.937  -5976668.035  -2809272.382
10 0 59576  83022.000000  0    1894015.157  -6329491.571  -1962020.014
10 0 59576  83142.000000  0    1775585.316  -6570147.471  -1080294.339
10 0 59576  83262.000000  0    1622966.727  -6693712.659   -179573.817
10 0 59576  83382.000000  0    1440879.591  -6697400.043    724304.636
10 0 59576  83502.000000  0    1234596.782  -6580624.821   1615430.277
10 0 59576  83622.000000  0    1009812.024  -6345027.888   2478109.206
10 0 59576  83742.000000  0     772500.272  -5994450.965   3297149.894
10 0 59576  83862.000000  0     528772.311  -5534868.687   4058137.220
10 0 59576  83982.000000  0     284729.217  -4974279.245   4747690.019
10 0 59576  84102.000000  0      46319.438  -4322555.870   5353698.090
10 0 59576  84222.000000  0    -180797.542  -3591262.847   5865533.631
10 0 59576  84342.000000  0    -391377.616  -2793440.274   6274234.171
10 0 59576  84462.000000  0    -580706.942  -1943363.710   6572652.129
10 0 59576  84582.000000  0    -744702.519  -1056285.731   6755572.964
10 0 59576  84702.000000  0    -879996.811   -148160.705   6819802.154
10 0 59576  84822.000000  0    -984005.434    764643.080   6764218.074
10 0 59576  84942.000000  0   -1054975.880   1665638.186   6589790.118
10 0 59576  85062.000000  0   -1092016.686   2538515.096   6299562.726
10 0 59576  85182.000000  0   -1095107.418   3367437.341   5898605.737
10 0 59576  85302.000000  0   -1065089.213   4137330.701   5393930.947
10 0 59576  85422.000000  0   -1003635.029   4834160.900   4794375.568
10 0 59576  85542.000000  0    -913201.698   5445196.679   4110453.594
99
